$$SOE
2459580.500000000, A.D. 2022-Jan-01 00:00:00.0000, -2.999589843502260E+09, -5.801418279192596E+09, 7.035884085613515E+08,
2459587.500000000, A.D. 2022-Jan-08 00:00:00.0000, -2.997004396992065E+09, -5.802301979667261E+09, 7.035827669732413E+08,
2459594.500000000, A.D. 2022-Jan-15 00:00:00.0000, -2.994418516521729E+09, -5.803184669393407E+09, 7.035770062463596E+08,
2459601.500000000, A.D. 2022-Jan-22 00:00:00.0000, -2.991832198526518E+09, -5.804066349536215E+09, 7.035711259839332E+08,
2459608.500000000, A.D. 2022-Jan-29 00:00:00.0000, -2.989245438862866E+09, -5.804947018784554E+09, 7.035651258963366E+08,
2459615.500000000, A.D. 2022-Feb-05 00:00:00.0000, -2.986658235015442E+09, -5.805826674022649E+09, 7.035590059488492E+08,
2459622.500000000, A.D. 2022-Feb-12 00:00:00.0000, -2.984070586130908E+09, -5.806705312069994E+09, 7.035527662243810E+08,
2459629.500000000, A.D. 2022-Feb-19 00:00:00.0000, -2.981482492203127E+09, -5.807582930120525E+09, 7.035464068161440E+08,
2459636.500000000, A.D. 2022-Feb-26 00:00:00.0000, -2.978893953721208E+09, -5.808459525604009E+09, 7.035399278112950E+08,
2459643.500000000, A.D. 2022-Mar-05 00:00:00.0000, -2.976304971621076E+09, -5.809335096086576E+09, 7.035333293002815E+08,
2459650.500000000, A.D. 2022-Mar-12 00:00:00.0000, -2.973715547318803E+09, -5.810209639275993E+09, 7.035266113858805E+08,
2459657.500000000, A.D. 2022-Mar-19 00:00:00.0000, -2.971125682754591E+09, -5.811083153103488E+09, 7.035197741873937E+08,
2459664.500000000, A.D. 2022-Mar-26 00:00:00.0000, -2.968535380425027E+09, -5.811955635887913E+09, 7.035128178371918E+08,
2459671.500000000, A.D. 2022-Apr-02 00:00:00.0000, -2.965944643335816E+09, -5.812827086637830E+09, 7.035057424585388E+08,
2459678.500000000, A.D. 2022-Apr-09 00:00:00.0000, -2.963353474602912E+09, -5.813697505486483E+09, 7.034985480999217E+08,
2459685.500000000, A.D. 2022-Apr-16 00:00:00.0000, -2.960761876344936E+09, -5.814566893605338E+09, 7.034912346464007E+08,
2459692.500000000, A.D. 2022-Apr-23 00:00:00.0000, -2.958169849135754E+09, -5.815435251511765E+09, 7.034838019128244E+08,
2459699.500000000, A.D. 2022-Apr-30 00:00:00.0000, -2.955577393887340E+09, -5.816302578015944E+09, 7.034762499068995E+08,
2459706.500000000, A.D. 2022-May-07 00:00:00.0000, -2.952984513100235E+09, -5.817168871780445E+09, 7.034685788198235E+08,
2459713.500000000, A.D. 2022-May-14 00:00:00.0000, -2.950391210092189E+09, -5.818034132454213E+09, 7.034607888652894E+08,
2459720.500000000, A.D. 2022-May-21 00:00:00.0000, -2.947797488236069E+09, -5.818898360622155E+09, 7.034528802151675E+08,
2459727.500000000, A.D. 2022-May-28 00:00:00.0000, -2.945203350685840E+09, -5.819761557529008E+09, 7.034448529974318E+08,
2459734.500000000, A.D. 2022-Jun-04 00:00:00.0000, -2.942608800313490E+09, -5.820623724890264E+09, 7.034367073053885E+08,
2459741.500000000, A.D. 2022-Jun-11 00:00:00.0000, -2.940013839712196E+09, -5.821484864787754E+09, 7.034284432051413E+08,
2459748.500000000, A.D. 2022-Jun-18 00:00:00.0000, -2.937418471227007E+09, -5.822344979636477E+09, 7.034200607389033E+08,
2459755.500000000, A.D. 2022-Jun-25 00:00:00.0000, -2.934822696983556E+09, -5.823204072255551E+09, 7.034115599188154E+08,
2459762.500000000, A.D. 2022-Jul-02 00:00:00.0000, -2.932226518780744E+09, -5.824062146108814E+09, 7.034029406937082E+08,
2459769.500000000, A.D. 2022-Jul-09 00:00:00.0000, -2.929629937457073E+09, -5.824919205537878E+09, 7.033942028676088E+08,
2459776.500000000, A.D. 2022-Jul-16 00:00:00.0000, -2.927032951785783E+09, -5.825775254904631E+09, 7.033853460636821E+08,
2459783.500000000, A.D. 2022-Jul-23 00:00:00.0000, -2.924435559097178E+09, -5.826630296565390E+09, 7.033763699417918E+08,
2459790.500000000, A.D. 2022-Jul-30 00:00:00.0000, -2.921837757544047E+09, -5.827484331030620E+09, 7.033672743881118E+08,
2459797.500000000, A.D. 2022-Aug-06 00:00:00.0000, -2.919239546411430E+09, -5.828337358662010E+09, 7.033580593998630E+08,
2459804.500000000, A.D. 2022-Aug-13 00:00:00.0000, -2.916640925293898E+09, -5.829189380152506E+09, 7.033487249660380E+08,
2459811.500000000, A.D. 2022-Aug-20 00:00:00.0000, -2.914041893709708E+09, -5.830040396292676E+09, 7.033392710471630E+08,
2459818.500000000, A.D. 2022-Aug-27 00:00:00.0000, -2.911442451083691E+09, -5.830890407749968E+09, 7.033296975886986E+08,
2459825.500000000, A.D. 2022-Sep-03 00:00:00.0000, -2.908842596850941E+09, -5.831739414971429E+09, 7.033200045364983E+08,
2459832.500000000, A.D. 2022-Sep-10 00:00:00.0000, -2.906242330591218E+09, -5.832587418185941E+09, 7.033101918481290E+08,
2459839.500000000, A.D. 2022-Sep-17 00:00:00.0000, -2.903641652164631E+09, -5.833434417507730E+09, 7.033002594972765E+08,
2459846.500000000, A.D. 2022-Sep-24 00:00:00.0000, -2.901040561788201E+09, -5.834280413192007E+09, 7.032902074614971E+08,
2459853.500000000, A.D. 2022-Oct-01 00:00:00.0000, -2.898439059813283E+09, -5.835125406065078E+09, 7.032800356693814E+08,
2459860.500000000, A.D. 2022-Oct-08 00:00:00.0000, -2.895837145796576E+09, -5.835969397606786E+09, 7.032697439122434E+08,
2459867.500000000, A.D. 2022-Oct-15 00:00:00.0000, -2.893234817796540E+09, -5.836812388486164E+09, 7.032593319035697E+08,
2459874.500000000, A.D. 2022-Oct-22 00:00:00.0000, -2.890632074076818E+09, -5.837654377234140E+09, 7.032487995484622E+08,
2459881.500000000, A.D. 2022-Oct-29 00:00:00.0000, -2.888028914718837E+09, -5.838495361646823E+09, 7.032381469817345E+08,
2459888.500000000, A.D. 2022-Nov-05 00:00:00.0000, -2.885425341044275E+09, -5.839335340178190E+09, 7.032273744058347E+08,
2459895.500000000, A.D. 2022-Nov-12 00:00:00.0000, -2.882821354812232E+09, -5.840174312054976E+09, 7.032164820121384E+08,
2459902.500000000, A.D. 2022-Nov-19 00:00:00.0000, -2.880216957910460E+09, -5.841012277067849E+09, 7.032054699734299E+08,
2459909.500000000, A.D. 2022-Nov-26 00:00:00.0000, -2.877612152278445E+09, -5.841849235436244E+09, 7.031943384509008E+08,
2459916.500000000, A.D. 2022-Dec-03 00:00:00.0000, -2.875006939896311E+09, -5.842685187758345E+09, 7.031830875993993E+08,
2459923.500000000, A.D. 2022-Dec-10 00:00:00.0000, -2.872401322794010E+09, -5.843520135027540E+09, 7.031717175682287E+08,
2459930.500000000, A.D. 2022-Dec-17 00:00:00.0000, -2.869795303056096E+09, -5.844354078740351E+09, 7.031602284931760E+08,
2459937.500000000, A.D. 2022-Dec-24 00:00:00.0000, -2.867188882712671E+09, -5.845187021161649E+09, 7.031486204643729E+08,
2459944.500000000, A.D. 2022-Dec-31 00:00:00.0000, -2.864582063158890E+09, -5.846018965639669E+09, 7.031368934460225E+08,
2459951.500000000, A.D. 2023-Jan-07 00:00:00.0000, -2.861974843980300E+09, -5.846849916008410E+09, 7.031250472154262E+08,
2459958.500000000, A.D. 2023-Jan-14 00:00:00.0000, -2.859367223151027E+09, -5.847679874580630E+09, 7.031130815424109E+08,
2459965.500000000, A.D. 2023-Jan-21 00:00:00.0000, -2.856759199249573E+09, -5.848508841904066E+09, 7.031009964090893E+08,
2459972.500000000, A.D. 2023-Jan-28 00:00:00.0000, -2.854150772024205E+09, -5.849336818476351E+09, 7.030887919176168E+08,
2459979.500000000, A.D. 2023-Feb-04 00:00:00.0000, -2.851541941516503E+09, -5.850163805390929E+09, 7.030764681525764E+08,
2459986.500000000, A.D. 2023-Feb-11 00:00:00.0000, -2.848932707538260E+09, -5.850989804107450E+09, 7.030640251469357E+08,
2459993.500000000, A.D. 2023-Feb-18 00:00:00.0000, -2.846323069564933E+09, -5.851814816169729E+09, 7.030514628902330E+08,
2460000.500000000, A.D. 2023-Feb-25 00:00:00.0000, -2.843713026782742E+09, -5.852638843032849E+09, 7.030387813417888E+08,
2460007.500000000, A.D. 2023-Mar-04 00:00:00.0000, -2.841102578187051E+09, -5.853461885980406E+09, 7.030259804412827E+08,
2460014.500000000, A.D. 2023-Mar-11 00:00:00.0000, -2.838491722703232E+09, -5.854283946131118E+09, 7.030130601142743E+08,
2460021.500000000, A.D. 2023-Mar-18 00:00:00.0000, -2.835880459282736E+09, -5.855105024584069E+09, 7.030000202645433E+08,
2460028.500000000, A.D. 2023-Mar-25 00:00:00.0000, -2.833268786770896E+09, -5.855925122749519E+09, 7.029868607309325E+08,
2460035.500000000, A.D. 2023-Apr-01 00:00:00.0000, -2.830656703121713E+09, -5.856744242471664E+09, 7.029735812021444E+08,
2460042.500000000, A.D. 2023-Apr-08 00:00:00.0000, -2.828044204574887E+09, -5.857562384718184E+09, 7.029601812462378E+08,
2460049.500000000, A.D. 2023-Apr-15 00:00:00.0000, -2.825431287131984E+09, -5.858379547942551E+09, 7.029466605789645E+08,
2460056.500000000, A.D. 2023-Apr-22 00:00:00.0000, -2.822817948522439E+09, -5.859195729170971E+09, 7.029330191556962E+08,
2460063.500000000, A.D. 2023-Apr-29 00:00:00.0000, -2.820204187924319E+09, -5.860010925560949E+09, 7.029192570202384E+08,
2460070.500000000, A.D. 2023-May-06 00:00:00.0000, -2.817590005200000E+09, -5.860825134650304E+09, 7.029053742175028E+08,
2460077.500000000, A.D. 2023-May-13 00:00:00.0000, -2.814975400623518E+09, -5.861638354190006E+09, 7.028913707865064E+08,
2460084.500000000, A.D. 2023-May-20 00:00:00.0000, -2.812360374865408E+09, -5.862450582051886E+09, 7.028772467719209E+08,
2460091.500000000, A.D. 2023-May-27 00:00:00.0000, -2.809744929041536E+09, -5.863261816240537E+09, 7.028630022337770E+08,
2460098.500000000, A.D. 2023-Jun-03 00:00:00.0000, -2.807129064768325E+09, -5.864072054983377E+09, 7.028486372519093E+08,
2460105.500000000, A.D. 2023-Jun-10 00:00:00.0000, -2.804512784200577E+09, -5.864881296912534E+09, 7.028341519215362E+08,
2460112.500000000, A.D. 2023-Jun-17 00:00:00.0000, -2.801896089962864E+09, -5.865689541398647E+09, 7.028195463266373E+08,
2460119.500000000, A.D. 2023-Jun-24 00:00:00.0000, -2.799278984654500E+09, -5.866496788980870E+09, 7.028048204660566E+08,
2460126.500000000, A.D. 2023-Jul-01 00:00:00.0000, -2.796661469674930E+09, -5.867303041064947E+09, 7.027899741765819E+08,
2460133.500000000, A.D. 2023-Jul-08 00:00:00.0000, -2.794043545043559E+09, -5.868108298067245E+09, 7.027750072735386E+08,
2460140.500000000, A.D. 2023-Jul-15 00:00:00.0000, -2.791425211490738E+09, -5.868912558834462E+09, 7.027599197946496E+08,
$$EOE